CUTE-1.7+APD II (CO-65) 
1 32785U 08021C   26073.55609676  .00009572  00000+0  61792-3 0  9998
2 32785  97.8205  53.1147 0009061   2.4593 357.6677 15.08451051970926
SEEDS II (CO-66)        
1 32791U 08021J   26073.43612563  .00022985  00000+0  80965-3 0  9997
2 32791  97.7516  67.0643 0000660 332.7648  27.3557 15.29309746972799
YUBILEINY (RS30)        
1 32953U 08025A   26073.53656483  .00000059  00000+0  35438-3 0  9994
2 32953  82.5006  54.3066 0019694 154.7194 205.4854 12.43176204807934
KKS-1 (KISEKI)          
1 33499U 09002H   26073.59327725  .00001985  00000+0  25189-3 0  9997
2 33499  98.1185 354.5631 0006640 231.5954 128.4663 14.82850996922177
SWISSCUBE               
1 35932U 09051B   26073.47271382  .00001347  00000+0  27685-3 0  9994
2 35932  98.4097 339.7002 0007406 138.7265 221.4497 14.62273966875313
BEESAT-1                
1 35933U 09051C   26073.57075262  .00001195  00000+0  25066-3 0  9997
2 35933  98.4024 339.6305 0005649 148.8301 211.3235 14.61546162875362
ITUPSAT1                
1 35935U 09051E   26072.79400777  .00001105  00000+0  23882-3 0  9990
2 35935  98.4112 338.1321 0007539 165.3239 194.8181 14.60278143874812
XIWANG-1 (HOPE-1)       
1 36122U 09072B   26073.62494318 -.00000025  00000+0  50203-4 0  9998
2 36122 100.3916  29.0124 0008133  89.1219 271.0826 13.16435463780567
O/OREOS (USA 219)       
1 37224U 10062C   26073.28700531  .00002617  00000+0  25501-3 0  9992
2 37224  71.9707 295.2361 0016732 248.9660 110.9721 14.93306403102471
JUGNU                   
1 37839U 11058B   26073.57141022  .00000513  00000+0  12835-3 0  9995
2 37839  19.9595 163.2385 0018726 111.0167 277.7923 14.13743579745624
SRMSAT                  
1 37841U 11058D   26073.63607541  .00000473  00000+0  11273-3 0  9998
2 37841  19.9716 271.7666 0011723 243.5427 173.7413 14.11549824744442
STRAND-1                
1 39090U 13009E   26073.43811536  .00000416  00000+0  15431-3 0  9990
2 39090  98.3892 256.0118 0009273 148.2913 211.8834 14.37099499683452
ZACUBE-1 (TSHEPISOSAT)  
1 39417U 13066B   26073.13182302  .00005011  00000+0  39631-3 0  9999
2 39417  97.8156  34.9774 0043049 205.1786 154.7340 15.00372843666471
GOMX-1                  
1 39430U 13066Q   26073.52434723  .00001923  00000+0  29526-3 0  9994
2 39430  97.6572 279.9280 0129897  22.0918 338.5816 14.69117694656012
CUBEBUG-2 (LO-74)       
1 39440U 13066AA  26073.38908112  .00006556  00000+0  61561-3 0  9999
2 39440  97.8810  22.0690 0058035 343.4169  16.5150 14.93018127662845
FUNCUBE-1 (AO-73)       
1 39444U 13066AE  26072.35704843  .00007962  00000+0  51353-3 0  9994
2 39444  97.8186  41.9580 0037754 166.4701 193.7548 15.07980612665219
