[{"OBJECT_NAME":"CUTE-1.7+APD II (CO-65)","OBJECT_ID":"2008-021C","EPOCH":"2026-03-14T13:20:46.760064","MEAN_MOTION":15.08451051,"ECCENTRICITY":0.00090616,"INCLINATION":97.8205,"RA_OF_ASC_NODE":53.1147,"ARG_OF_PERICENTER":2.4593,"MEAN_ANOMALY":357.6677,"EPHEMERIS_TYPE":0,"CLASSIFICATION_TYPE":"U","NORAD_CAT_ID":32785,"ELEMENT_SET_NO":999,"REV_AT_EPOCH":97092,"BSTAR":0.00061791977,"MEAN_MOTION_DOT":9.572e-5,"MEAN_MOTION_DDOT":0},{"OBJECT_NAME":"SEEDS II (CO-66)","OBJECT_ID":"2008-021J","EPOCH":"2026-03-14T10:28:01.254432","MEAN_MOTION":15.29309746,"ECCENTRICITY":6.601e-5,"INCLINATION":97.7516,"RA_OF_ASC_NODE":67.0643,"ARG_OF_PERICENTER":332.7648,"MEAN_ANOMALY":27.3557,"EPHEMERIS_TYPE":0,"CLASSIFICATION_TYPE":"U","NORAD_CAT_ID":32791,"ELEMENT_SET_NO":999,"REV_AT_EPOCH":97279,"BSTAR":0.0008096451,"MEAN_MOTION_DOT":0.00022985,"MEAN_MOTION_DDOT":0},{"OBJECT_NAME":"YUBILEINY (RS30)","OBJECT_ID":"2008-025A","EPOCH":"2026-03-14T12:52:39.201312","MEAN_MOTION":12.43176204,"ECCENTRICITY":0.00196945,"INCLINATION":82.5006,"RA_OF_ASC_NODE":54.3066,"ARG_OF_PERICENTER":154.7194,"MEAN_ANOMALY":205.4854,"EPHEMERIS_TYPE":0,"CLASSIFICATION_TYPE":"U","NORAD_CAT_ID":32953,"ELEMENT_SET_NO":999,"REV_AT_EPOCH":80793,"BSTAR":0.00035438221,"MEAN_MOTION_DOT":5.9e-7,"MEAN_MOTION_DDOT":0},{"OBJECT_NAME":"KKS-1 (KISEKI)","OBJECT_ID":"2009-002H","EPOCH":"2026-03-14T14:14:19.154400","MEAN_MOTION":14.82850996,"ECCENTRICITY":0.00066401,"INCLINATION":98.1185,"RA_OF_ASC_NODE":354.5631,"ARG_OF_PERICENTER":231.5954,"MEAN_ANOMALY":128.4663,"EPHEMERIS_TYPE":0,"CLASSIFICATION_TYPE":"U","NORAD_CAT_ID":33499,"ELEMENT_SET_NO":999,"REV_AT_EPOCH":92217,"BSTAR":0.00025188623,"MEAN_MOTION_DOT":1.985e-5,"MEAN_MOTION_DDOT":0},{"OBJECT_NAME":"SWISSCUBE","OBJECT_ID":"2009-051B","EPOCH":"2026-03-14T11:20:42.474048","MEAN_MOTION":14.62273966,"ECCENTRICITY":0.00074063,"INCLINATION":98.4097,"RA_OF_ASC_NODE":339.7002,"ARG_OF_PERICENTER":138.7265,"MEAN_ANOMALY":221.4497,"EPHEMERIS_TYPE":0,"CLASSIFICATION_TYPE":"U","NORAD_CAT_ID":35932,"ELEMENT_SET_NO":999,"REV_AT_EPOCH":87531,"BSTAR":0.00027685463,"MEAN_MOTION_DOT":1.347e-5,"MEAN_MOTION_DDOT":0},{"OBJECT_NAME":"BEESAT-1","OBJECT_ID":"2009-051C","EPOCH":"2026-03-14T13:41:53.026368","MEAN_MOTION":14.61546162,"ECCENTRICITY":0.00056496,"INCLINATION":98.4024,"RA_OF_ASC_NODE":339.6305,"ARG_OF_PERICENTER":148.8301,"MEAN_ANOMALY":211.3235,"EPHEMERIS_TYPE":0,"CLASSIFICATION_TYPE":"U","NORAD_CAT_ID":35933,"ELEMENT_SET_NO":999,"REV_AT_EPOCH":87536,"BSTAR":0.00025065997,"MEAN_MOTION_DOT":1.195e-5,"MEAN_MOTION_DDOT":0},{"OBJECT_NAME":"ITUPSAT1","OBJECT_ID":"2009-051E","EPOCH":"2026-03-13T19:03:22.271328","MEAN_MOTION":14.60278143,"ECCENTRICITY":0.00075398,"INCLINATION":98.4112,"RA_OF_ASC_NODE":338.1321,"ARG_OF_PERICENTER":165.3239,"MEAN_ANOMALY":194.8181,"EPHEMERIS_TYPE":0,"CLASSIFICATION_TYPE":"U","NORAD_CAT_ID":35935,"ELEMENT_SET_NO":999,"REV_AT_EPOCH":87481,"BSTAR":0.0002388211,"MEAN_MOTION_DOT":1.105e-5,"MEAN_MOTION_DDOT":0},{"OBJECT_NAME":"XIWANG-1 (HOPE-1)","OBJECT_ID":"2009-072B","EPOCH":"2026-03-14T14:59:55.090752","MEAN_MOTION":13.16435463,"ECCENTRICITY":0.00081335,"INCLINATION":100.3916,"RA_OF_ASC_NODE":29.0124,"ARG_OF_PERICENTER":89.1219,"MEAN_ANOMALY":271.0826,"EPHEMERIS_TYPE":0,"CLASSIFICATION_TYPE":"U","NORAD_CAT_ID":36122,"ELEMENT_SET_NO":999,"REV_AT_EPOCH":78056,"BSTAR":5.0202627e-5,"MEAN_MOTION_DOT":-2.5e-7,"MEAN_MOTION_DDOT":0},{"OBJECT_NAME":"O/OREOS (USA 219)","OBJECT_ID":"2010-062C","EPOCH":"2026-03-14T06:53:17.258784","MEAN_MOTION":14.93306403,"ECCENTRICITY":0.00167321,"INCLINATION":71.9707,"RA_OF_ASC_NODE":295.2361,"ARG_OF_PERICENTER":248.966,"MEAN_ANOMALY":110.9721,"EPHEMERIS_TYPE":0,"CLASSIFICATION_TYPE":"U","NORAD_CAT_ID":37224,"ELEMENT_SET_NO":999,"REV_AT_EPOCH":10247,"BSTAR":0.00025501426,"MEAN_MOTION_DOT":2.617e-5,"MEAN_MOTION_DDOT":0},{"OBJECT_NAME":"JUGNU","OBJECT_ID":"2011-058B","EPOCH":"2026-03-14T13:42:49.843008","MEAN_MOTION":14.13743579,"ECCENTRICITY":0.00187262,"INCLINATION":19.9595,"RA_OF_ASC_NODE":163.2385,"ARG_OF_PERICENTER":111.0167,"MEAN_ANOMALY":277.7923,"EPHEMERIS_TYPE":0,"CLASSIFICATION_TYPE":"U","NORAD_CAT_ID":37839,"ELEMENT_SET_NO":999,"REV_AT_EPOCH":74562,"BSTAR":0.0001283494,"MEAN_MOTION_DOT":5.13e-6,"MEAN_MOTION_DDOT":0},{"OBJECT_NAME":"SRMSAT","OBJECT_ID":"2011-058D","EPOCH":"2026-03-14T15:15:56.915424","MEAN_MOTION":14.11549824,"ECCENTRICITY":0.00117235,"INCLINATION":19.9716,"RA_OF_ASC_NODE":271.7666,"ARG_OF_PERICENTER":243.5427,"MEAN_ANOMALY":173.7413,"EPHEMERIS_TYPE":0,"CLASSIFICATION_TYPE":"U","NORAD_CAT_ID":37841,"ELEMENT_SET_NO":999,"REV_AT_EPOCH":74444,"BSTAR":0.00011273211,"MEAN_MOTION_DOT":4.73e-6,"MEAN_MOTION_DDOT":0},{"OBJECT_NAME":"STRAND-1","OBJECT_ID":"2013-009E","EPOCH":"2026-03-14T10:30:53.167104","MEAN_MOTION":14.37099499,"ECCENTRICITY":0.00092737,"INCLINATION":98.3892,"RA_OF_ASC_NODE":256.0118,"ARG_OF_PERICENTER":148.2913,"MEAN_ANOMALY":211.8834,"EPHEMERIS_TYPE":0,"CLASSIFICATION_TYPE":"U","NORAD_CAT_ID":39090,"ELEMENT_SET_NO":999,"REV_AT_EPOCH":68345,"BSTAR":0.00015431045,"MEAN_MOTION_DOT":4.16e-6,"MEAN_MOTION_DDOT":0},{"OBJECT_NAME":"ZACUBE-1 (TSHEPISOSAT)","OBJECT_ID":"2013-066B","EPOCH":"2026-03-14T03:09:49.508928","MEAN_MOTION":15.00372843,"ECCENTRICITY":0.00430498,"INCLINATION":97.8156,"RA_OF_ASC_NODE":34.9774,"ARG_OF_PERICENTER":205.1786,"MEAN_ANOMALY":154.734,"EPHEMERIS_TYPE":0,"CLASSIFICATION_TYPE":"U","NORAD_CAT_ID":39417,"ELEMENT_SET_NO":999,"REV_AT_EPOCH":66647,"BSTAR":0.00039630702,"MEAN_MOTION_DOT":5.011e-5,"MEAN_MOTION_DDOT":0},{"OBJECT_NAME":"GOMX-1","OBJECT_ID":"2013-066Q","EPOCH":"2026-03-14T12:35:03.600672","MEAN_MOTION":14.69117694,"ECCENTRICITY":0.01298975,"INCLINATION":97.6572,"RA_OF_ASC_NODE":279.928,"ARG_OF_PERICENTER":22.0918,"MEAN_ANOMALY":338.5816,"EPHEMERIS_TYPE":0,"CLASSIFICATION_TYPE":"U","NORAD_CAT_ID":39430,"ELEMENT_SET_NO":999,"REV_AT_EPOCH":65601,"BSTAR":0.00029525739,"MEAN_MOTION_DOT":1.923e-5,"MEAN_MOTION_DDOT":0},{"OBJECT_NAME":"CUBEBUG-2 (LO-74)","OBJECT_ID":"2013-066AA","EPOCH":"2026-03-14T09:20:16.608768","MEAN_MOTION":14.93018127,"ECCENTRICITY":0.00580358,"INCLINATION":97.881,"RA_OF_ASC_NODE":22.069,"ARG_OF_PERICENTER":343.4169,"MEAN_ANOMALY":16.515,"EPHEMERIS_TYPE":0,"CLASSIFICATION_TYPE":"U","NORAD_CAT_ID":39440,"ELEMENT_SET_NO":999,"REV_AT_EPOCH":66284,"BSTAR":0.00061561312,"MEAN_MOTION_DOT":6.556e-5,"MEAN_MOTION_DDOT":0},{"OBJECT_NAME":"FUNCUBE-1 (AO-73)","OBJECT_ID":"2013-066AE","EPOCH":"2026-03-13T08:34:08.984352","MEAN_MOTION":15.07980612,"ECCENTRICITY":0.00377544,"INCLINATION":97.8186,"RA_OF_ASC_NODE":41.958,"ARG_OF_PERICENTER":166.4701,"MEAN_ANOMALY":193.7548,"EPHEMERIS_TYPE":0,"CLASSIFICATION_TYPE":"U","NORAD_CAT_ID":39444,"ELEMENT_SET_NO":999,"REV_AT_EPOCH":66521,"BSTAR":0.0005135257,"MEAN_MOTION_DOT":7.962e-5,"MEAN_MOTION_DDOT":0}]
